JY1SAT (JO-97)          
1 43803U 18099AX  26068.68634132  .00017774  00000+0  60804-3 0  9996
2 43803  97.4249 131.3625 0004723 256.6795 103.3919 15.30302628398390
STARLINK-35608          
1 66508U 25263Z   26068.13895040  .00034248  00000+0  12487-2 0  9999
2 66508  43.0000 353.8938 0001155 287.9889  72.0837 15.27569338 18810
